OBJECT C                
1 57582U 23117C   24354.28847463  .00012051  00000+0  53968-3 0  9993
2 57582  97.4670  64.2764 0009866  16.7026 343.4533 15.21366249 75277
